{"type": "FeatureCollection", "features": [{"type": "Feature", "properties": {"norad_id": 26766, "name": "INTELSAT 10 (IS-10)", "group": "intelsat", "lat": 3.651981481575682, "lon": 85.7274997075308, "alt_km": 36155.00635119022, "timestamp": "2025-12-20T16:47:35.958511+00:00", "meta": {"OBJECT_NAME": "INTELSAT 10 (IS-10)", "OBJECT_ID": "2001-019A", "EPOCH": "2025-12-20T12:07:39.749088", "MEAN_MOTION": 0.99074466, "ECCENTRICITY": 0.0007767, "INCLINATION": 8.6468, "RA_OF_ASC_NODE": 61.0789, "ARG_OF_PERICENTER": 228.9556, "MEAN_ANOMALY": 86.574, "EPHEMERIS_TYPE": 0, "CLASSIFICATION_TYPE": "U", "NORAD_CAT_ID": 26766, "ELEMENT_SET_NO": 999, "REV_AT_EPOCH": 4380, "BSTAR": 0, "MEAN_MOTION_DOT": -1.08e-06, "MEAN_MOTION_DDOT": 0}, "tle": {"line1": "1 26766U 01019A   25354.50532117 -.00000108  00000+0  00000+0 0  9999", "line2": "2 26766   8.6468  61.0789 0007767 228.9556  86.5740  0.99074466 43806"}}, "geometry": {"type": "Point", "coordinates": [85.7274997075308, 3.651981481575682]}}, {"type": "Feature", "properties": {"norad_id": 26900, "name": "INTELSAT 902 (IS-902)", "group": "intelsat", "lat": -3.4589436355416714, "lon": -68.8231967157257, "alt_km": 35770.42735717256, "timestamp": "2025-12-20T16:47:35.958536+00:00", "meta": {"OBJECT_NAME": "INTELSAT 902 (IS-902)", "OBJECT_ID": "2001-039A", "EPOCH": "2025-12-15T13:09:02.081664", "MEAN_MOTION": 1.0027087, "ECCENTRICITY": 0.00045028, "INCLINATION": 5.6536, "RA_OF_ASC_NODE": 74.0372, "ARG_OF_PERICENTER": 189.6359, "MEAN_ANOMALY": 327.9329, "EPHEMERIS_TYPE": 0, "CLASSIFICATION_TYPE": "U", "NORAD_CAT_ID": 26900, "ELEMENT_SET_NO": 999, "REV_AT_EPOCH": 8885, "BSTAR": 0, "MEAN_MOTION_DOT": -2.65e-06, "MEAN_MOTION_DDOT": 0}, "tle": {"line1": "1 26900U 01039A   25349.54794076 -.00000265  00000+0  00000+0 0  9997", "line2": "2 26900   5.6536  74.0372 0004502 189.6359 327.9329  1.00270870 88858"}}, "geometry": {"type": "Point", "coordinates": [-68.8231967157257, -3.4589436355416714]}}, {"type": "Feature", "properties": {"norad_id": 27380, "name": "INTELSAT 904 (IS-904)", "group": "intelsat", "lat": -5.543709241129346, "lon": -50.241373996903704, "alt_km": 35779.61964779289, "timestamp": "2025-12-20T16:47:35.958552+00:00", "meta": {"OBJECT_NAME": "INTELSAT 904 (IS-904)", "OBJECT_ID": "2002-007A", "EPOCH": "2025-12-20T00:12:38.708640", "MEAN_MOTION": 1.00271119, "ECCENTRICITY": 0.00017883, "INCLINATION": 6.4716, "RA_OF_ASC_NODE": 71.3489, "ARG_OF_PERICENTER": 248.0569, "MEAN_ANOMALY": 101.1022, "EPHEMERIS_TYPE": 0, "CLASSIFICATION_TYPE": "U", "NORAD_CAT_ID": 27380, "ELEMENT_SET_NO": 999, "REV_AT_EPOCH": 4996, "BSTAR": 0, "MEAN_MOTION_DOT": -2.07e-06, "MEAN_MOTION_DDOT": 0}, "tle": {"line1": "1 27380U 02007A   25354.00878135 -.00000207  00000+0  00000+0 0  9998", "line2": "2 27380   6.4716  71.3489 0001788 248.0569 101.1022  1.00271119 49963"}}, "geometry": {"type": "Point", "coordinates": [-50.241373996903704, -5.543709241129346]}}, {"type": "Feature", "properties": {"norad_id": 27426, "name": "DIRECTV 5 (TEMPO 1)", "group": "intelsat", "lat": 1.9369689764010785, "lon": -128.65027274067106, "alt_km": 35776.50870426549, "timestamp": "2025-12-20T16:47:35.958566+00:00", "meta": {"OBJECT_NAME": "DIRECTV 5 (TEMPO 1)", "OBJECT_ID": "2002-023A", "EPOCH": "2025-12-20T10:12:17.667072", "MEAN_MOTION": 1.00271343, "ECCENTRICITY": 0.0003112, "INCLINATION": 4.4204, "RA_OF_ASC_NODE": 77.5629, "ARG_OF_PERICENTER": 198.0505, "MEAN_ANOMALY": 216.5994, "EPHEMERIS_TYPE": 0, "CLASSIFICATION_TYPE": "U", "NORAD_CAT_ID": 27426, "ELEMENT_SET_NO": 999, "REV_AT_EPOCH": 8633, "BSTAR": 0, "MEAN_MOTION_DOT": -3.7e-07, "MEAN_MOTION_DDOT": 0}, "tle": {"line1": "1 27426U 02023A   25354.42520448 -.00000037  00000+0  00000+0 0  9995", "line2": "2 27426   4.4204  77.5629 0003112 198.0505 216.5994  1.00271343 86335"}}, "geometry": {"type": "Point", "coordinates": [-128.65027274067106, 1.9369689764010785]}}, {"type": "Feature", "properties": {"norad_id": 27438, "name": "INTELSAT 905 (IS-905)", "group": "intelsat", "lat": 4.658161757244752, "lon": -155.63383852916408, "alt_km": 35781.4037454356, "timestamp": "2025-12-20T16:47:35.958579+00:00", "meta": {"OBJECT_NAME": "INTELSAT 905 (IS-905)", "OBJECT_ID": "2002-027A", "EPOCH": "2025-12-20T10:52:51.498912", "MEAN_MOTION": 1.00272487, "ECCENTRICITY": 0.0002664, "INCLINATION": 6.3037, "RA_OF_ASC_NODE": 71.9674, "ARG_OF_PERICENTER": 202.299, "MEAN_ANOMALY": 201.0262, "EPHEMERIS_TYPE": 0, "CLASSIFICATION_TYPE": "U", "NORAD_CAT_ID": 27438, "ELEMENT_SET_NO": 999, "REV_AT_EPOCH": 4957, "BSTAR": 0, "MEAN_MOTION_DOT": 1.12e-06, "MEAN_MOTION_DDOT": 0}, "tle": {"line1": "1 27438U 02027A   25354.45337383  .00000112  00000+0  00000+0 0  9992", "line2": "2 27438   6.3037  71.9674 0002664 202.2990 201.0262  1.00272487 49570"}}, "geometry": {"type": "Point", "coordinates": [-155.63383852916408, 4.658161757244752]}}, {"type": "Feature", "properties": {"norad_id": 27445, "name": "GALAXY 3C (G-3C)", "group": "intelsat", "lat": 0.7610314510368804, "lon": -113.3989814655141, "alt_km": 35785.88029482495, "timestamp": "2025-12-20T16:47:35.958592+00:00", "meta": {"OBJECT_NAME": "GALAXY 3C (G-3C)", "OBJECT_ID": "2002-030A", "EPOCH": "2025-12-20T11:56:05.482752", "MEAN_MOTION": 1.00271782, "ECCENTRICITY": 0.0001109, "INCLINATION": 3.2821, "RA_OF_ASC_NODE": 80.4263, "ARG_OF_PERICENTER": 77.7838, "MEAN_ANOMALY": 15.2839, "EPHEMERIS_TYPE": 0, "CLASSIFICATION_TYPE": "U", "NORAD_CAT_ID": 27445, "ELEMENT_SET_NO": 999, "REV_AT_EPOCH": 4470, "BSTAR": 0, "MEAN_MOTION_DOT": -1.31e-06, "MEAN_MOTION_DDOT": 0}, "tle": {"line1": "1 27445U 02030A   25354.49728568 -.00000131  00000+0  00000+0 0  9999", "line2": "2 27445   3.2821  80.4263 0001109  77.7838  15.2839  1.00271782 44705"}}, "geometry": {"type": "Point", "coordinates": [-113.3989814655141, 0.7610314510368804]}}, {"type": "Feature", "properties": {"norad_id": 27513, "name": "INTELSAT 906 (IS-906)", "group": "intelsat", "lat": -2.6176761556556696, "lon": 45.718723687463964, "alt_km": 35804.074939243765, "timestamp": "2025-12-20T16:47:35.958604+00:00", "meta": {"OBJECT_NAME": "INTELSAT 906 (IS-906)", "OBJECT_ID": "2002-041A", "EPOCH": "2025-12-19T20:34:46.617600", "MEAN_MOTION": 1.00272721, "ECCENTRICITY": 0.00063182, "INCLINATION": 5.3475, "RA_OF_ASC_NODE": 75.1475, "ARG_OF_PERICENTER": 198.3862, "MEAN_ANOMALY": 187.9892, "EPHEMERIS_TYPE": 0, "CLASSIFICATION_TYPE": "U", "NORAD_CAT_ID": 27513, "ELEMENT_SET_NO": 999, "REV_AT_EPOCH": 8523, "BSTAR": 0, "MEAN_MOTION_DOT": 3.3e-07, "MEAN_MOTION_DDOT": 0}, "tle": {"line1": "1 27513U 02041A   25353.85748400  .00000033  00000+0  00000+0 0  9993", "line2": "2 27513   5.3475  75.1475 0006318 198.3862 187.9892  1.00272721 85232"}}, "geometry": {"type": "Point", "coordinates": [45.718723687463964, -2.6176761556556696]}}, {"type": "Feature", "properties": {"norad_id": 27954, "name": "GALAXY 13 (HORIZONS-1)", "group": "intelsat", "lat": 0.9181311443006408, "lon": -168.62059879325787, "alt_km": 35783.51679471247, "timestamp": "2025-12-20T16:47:35.958616+00:00", "meta": {"OBJECT_NAME": "GALAXY 13 (HORIZONS-1)", "OBJECT_ID": "2003-044A", "EPOCH": "2025-12-20T09:57:56.417184", "MEAN_MOTION": 1.00269756, "ECCENTRICITY": 0.0002377, "INCLINATION": 0.9563, "RA_OF_ASC_NODE": 86.3737, "ARG_OF_PERICENTER": 177.7476, "MEAN_ANOMALY": 184.5966, "EPHEMERIS_TYPE": 0, "CLASSIFICATION_TYPE": "U", "NORAD_CAT_ID": 27954, "ELEMENT_SET_NO": 999, "REV_AT_EPOCH": 4478, "BSTAR": 0, "MEAN_MOTION_DOT": 1.56e-06, "MEAN_MOTION_DDOT": 0}, "tle": {"line1": "1 27954U 03044A   25354.41523631  .00000156  00000+0  00000+0 0  9992", "line2": "2 27954   0.9563  86.3737 0002377 177.7476 184.5966  1.00269756 44782"}}, "geometry": {"type": "Point", "coordinates": [-168.62059879325787, 0.9181311443006408]}}, {"type": "Feature", "properties": {"norad_id": 28358, "name": "INTELSAT 10-02", "group": "intelsat", "lat": -0.024677133002099755, "lon": -19.539333280705826, "alt_km": 35783.51985135805, "timestamp": "2025-12-20T16:47:35.958628+00:00", "meta": {"OBJECT_NAME": "INTELSAT 10-02", "OBJECT_ID": "2004-022A", "EPOCH": "2025-12-20T08:05:23.151264", "MEAN_MOTION": 1.00270527, "ECCENTRICITY": 8.89e-05, "INCLINATION": 0.0213, "RA_OF_ASC_NODE": 70.3166, "ARG_OF_PERICENTER": 231.0775, "MEAN_ANOMALY": 268.1602, "EPHEMERIS_TYPE": 0, "CLASSIFICATION_TYPE": "U", "NORAD_CAT_ID": 28358, "ELEMENT_SET_NO": 999, "REV_AT_EPOCH": 7876, "BSTAR": 0, "MEAN_MOTION_DOT": 1.3e-07, "MEAN_MOTION_DDOT": 0}, "tle": {"line1": "1 28358U 04022A   25354.33707351  .00000013  00000+0  00000+0 0  9994", "line2": "2 28358   0.0213  70.3166 0000889 231.0775 268.1602  1.00270527 78764"}}, "geometry": {"type": "Point", "coordinates": [-19.539333280705826, -0.024677133002099755]}}, {"type": "Feature", "properties": {"norad_id": 28626, "name": "XM-3 (RHYTHM)", "group": "intelsat", "lat": -0.05471396894784593, "lon": 57.90981756114114, "alt_km": 36156.40117153911, "timestamp": "2025-12-20T16:47:35.958640+00:00", "meta": {"OBJECT_NAME": "XM-3 (RHYTHM)", "OBJECT_ID": "2005-008A", "EPOCH": "2025-12-20T10:10:33.662208", "MEAN_MOTION": 0.98949953, "ECCENTRICITY": 0.0001941, "INCLINATION": 0.1936, "RA_OF_ASC_NODE": 81.981, "ARG_OF_PERICENTER": 278.0796, "MEAN_ANOMALY": 319.6205, "EPHEMERIS_TYPE": 0, "CLASSIFICATION_TYPE": "U", "NORAD_CAT_ID": 28626, "ELEMENT_SET_NO": 999, "REV_AT_EPOCH": 4082, "BSTAR": 0, "MEAN_MOTION_DOT": 7.2e-07, "MEAN_MOTION_DDOT": 0}, "tle": {"line1": "1 28626U 05008A   25354.42400072  .00000072  00000+0  00000+0 0  9992", "line2": "2 28626   0.1936  81.9810 0001941 278.0796 319.6205  0.98949953 40822"}}, "geometry": {"type": "Point", "coordinates": [57.90981756114114, -0.05471396894784593]}}]}